start=new Date('2022-09-06T00:00:00.000Z').valueOf();
sats=[{"TLE_LINE2":"2 52291  53.2149  88.7290 0001791  59.9144  99.1304 15.08818827  1307","BSTAR":"0.00051174000000","INCLINATION":"53.2149","OBJECT_TYPE":"PAYLOAD","MEAN_ELEMENT_THEORY":"SGP4","RCS_SIZE":"LARGE","CLASSIFICATION_TYPE":"U","COUNTRY_CODE":"US","MEAN_MOTION_DDOT":"0.0000000000000","MEAN_MOTION_DOT":"0.00007861","APOAPSIS":"541.049","MEAN_MOTION":"15.08818827","ECCENTRICITY":"0.00017910","FILE":"3559723","PERIAPSIS":"538.571","ELEMENT_SET_NO":"999","EPOCH":"2022-09-05T22:00:00.999936","SITE":"AFETR","ARG_OF_PERICENTER":"59.9144","DECAY_DATE":null,"RA_OF_ASC_NODE":"88.7290","TLE_LINE1":"1 52291U 22041AG  22248.91667824  .00007861  00000-0  51174-3 0  9992","TIME_SYSTEM":"UTC","LAUNCH_DATE":"2022-04-21","GP_ID":"211834911","CENTER_NAME":"EARTH","OBJECT_NAME":"STARLINK-3773","EPHEMERIS_TYPE":"0","OBJECT_ID":"2022-041AG","REF_FRAME":"TEME","SEMIMAJOR_AXIS":"6917.945","PERIOD":"95.439","MEAN_ANOMALY":"99.1304","NORAD_CAT_ID":"52291","REV_AT_EPOCH":"130"},{"ARG_OF_PERICENTER":"72.8840","ELEMENT_SET_NO":"999","EPOCH":"2022-09-05T22:00:00.999936","FILE":"3559723","PERIAPSIS":"538.788","SITE":"AFETR","COUNTRY_CODE":"US","CLASSIFICATION_TYPE":"U","RCS_SIZE":"MEDIUM","MEAN_ELEMENT_THEORY":"SGP4","APOAPSIS":"540.844","ECCENTRICITY":"0.00014860","MEAN_MOTION":"15.08816880","MEAN_MOTION_DOT":"0.00008013","MEAN_MOTION_DDOT":"0.0000000000000","BSTAR":"0.00052132000000","TLE_LINE2":"2 52292  53.2169  88.7231 0001486  72.8840 206.1588 15.08816880  1304","OBJECT_TYPE":"PAYLOAD","INCLINATION":"53.2169","REV_AT_EPOCH":"130","MEAN_ANOMALY":"206.1588","PERIOD":"95.439","NORAD_CAT_ID":"52292","OBJECT_NAME":"STARLINK-3753","SEMIMAJOR_AXIS":"6917.951","REF_FRAME":"TEME","OBJECT_ID":"2022-041AH","EPHEMERIS_TYPE":"0","TLE_LINE1":"1 52292U 22041AH  22248.91667824  .00008013  00000-0  52132-3 0  9998","RA_OF_ASC_NODE":"88.7231","DECAY_DATE":null,"CENTER_NAME":"EARTH","GP_ID":"211835163","LAUNCH_DATE":"2022-04-21","TIME_SYSTEM":"UTC"},{"REV_AT_EPOCH":"130","PERIOD":"95.438","MEAN_ANOMALY":"153.1160","NORAD_CAT_ID":"52293","OBJECT_NAME":"STARLINK-3771","EPHEMERIS_TYPE":"0","OBJECT_ID":"2022-041AJ","REF_FRAME":"TEME","SEMIMAJOR_AXIS":"6917.913","DECAY_DATE":null,"RA_OF_ASC_NODE":"88.7314","TLE_LINE1":"1 52293U 22041AJ  22248.91667824  .00006446  00000-0  42286-3 0  9996","LAUNCH_DATE":"2022-04-21","TIME_SYSTEM":"UTC","GP_ID":"211835913","CENTER_NAME":"EARTH","ARG_OF_PERICENTER":"65.8606","PERIAPSIS":"538.699","FILE":"3559723","ELEMENT_SET_NO":"999","EPOCH":"2022-09-05T22:00:00.999936","SITE":"AFETR","MEAN_ELEMENT_THEORY":"SGP4","RCS_SIZE":"LARGE","CLASSIFICATION_TYPE":"U","COUNTRY_CODE":"US","MEAN_MOTION_DDOT":"0.0000000000000","MEAN_MOTION_DOT":"0.00006446","MEAN_MOTION":"15.08829277","APOAPSIS":"540.857","ECCENTRICITY":"0.00015600","TLE_LINE2":"2 52293  53.2159  88.7314 0001560  65.8606 153.1160 15.08829277  1302","BSTAR":"0.00042286000000","INCLINATION":"53.2159","OBJECT_TYPE":"PAYLOAD"},{"TLE_LINE2":"2 52294  53.2179  88.7244 0001428  69.7178 229.3215 15.08821121  1304","BSTAR":"0.00030880000000","INCLINATION":"53.2179","OBJECT_TYPE":"PAYLOAD","COUNTRY_CODE":"US","MEAN_ELEMENT_THEORY":"SGP4","CLASSIFICATION_TYPE":"U","RCS_SIZE":"MEDIUM","APOAPSIS":"540.791","ECCENTRICITY":"0.00014280","MEAN_MOTION":"15.08821121","MEAN_MOTION_DDOT":"0.0000000000000","MEAN_MOTION_DOT":"0.00004628","EPOCH":"2022-09-05T22:00:00.999936","ELEMENT_SET_NO":"999","FILE":"3559723","PERIAPSIS":"538.815","SITE":"AFETR","ARG_OF_PERICENTER":"69.7178","RA_OF_ASC_NODE":"88.7244","TLE_LINE1":"1 52294U 22041AK  22248.91667824  .00004628  00000-0  30880-3 0  9994","DECAY_DATE":null,"GP_ID":"211836161","CENTER_NAME":"EARTH","LAUNCH_DATE":"2022-04-21","TIME_SYSTEM":"UTC","OBJECT_NAME":"STARLINK-3777","SEMIMAJOR_AXIS":"6917.938","EPHEMERIS_TYPE":"0","REF_FRAME":"TEME","OBJECT_ID":"2022-041AK","MEAN_ANOMALY":"229.3215","PERIOD":"95.439","NORAD_CAT_ID":"52294","REV_AT_EPOCH":"130"},{"OBJECT_NAME":"STARLINK-3765","SEMIMAJOR_AXIS":"6917.929","OBJECT_ID":"2022-041AL","REF_FRAME":"TEME","EPHEMERIS_TYPE":"0","TLE_LINE1":"1 52295U 22041AL  22248.91667824  .00005060  00000-0  33591-3 0  9998","RA_OF_ASC_NODE":"88.7269","DECAY_DATE":null,"CENTER_NAME":"EARTH","GP_ID":"211834412","TIME_SYSTEM":"UTC","LAUNCH_DATE":"2022-04-21","REV_AT_EPOCH":"130","MEAN_ANOMALY":"178.3983","PERIOD":"95.439","NORAD_CAT_ID":"52295","COUNTRY_CODE":"US","RCS_SIZE":"LARGE","CLASSIFICATION_TYPE":"U","MEAN_ELEMENT_THEORY":"SGP4","ECCENTRICITY":"0.00017680","APOAPSIS":"541.017","MEAN_MOTION":"15.08824073","MEAN_MOTION_DOT":"0.00005060","MEAN_MOTION_DDOT":"0.0000000000000","BSTAR":"0.00033591000000","TLE_LINE2":"2 52295  53.2147  88.7269 0001768  60.6203 178.3983 15.08824073  1307","OBJECT_TYPE":"PAYLOAD","INCLINATION":"53.2147","ARG_OF_PERICENTER":"60.6203","EPOCH":"2022-09-05T22:00:00.999936","ELEMENT_SET_NO":"999","FILE":"3559723","PERIAPSIS":"538.571","SITE":"AFETR"},{"REV_AT_EPOCH":"130","NORAD_CAT_ID":"52296","PERIOD":"95.439","MEAN_ANOMALY":"291.5052","OBJECT_ID":"2022-041AM","REF_FRAME":"TEME","EPHEMERIS_TYPE":"0","SEMIMAJOR_AXIS":"6917.933","OBJECT_NAME":"STARLINK-3766","TIME_SYSTEM":"UTC","LAUNCH_DATE":"2022-04-21","CENTER_NAME":"EARTH","GP_ID":"211835162","DECAY_DATE":null,"TLE_LINE1":"1 52296U 22041AM  22248.91667824  .00001036  00000-0  83205-4 0  9996","RA_OF_ASC_NODE":"88.7260","ARG_OF_PERICENTER":"67.5129","SITE":"AFETR","FILE":"3559723","PERIAPSIS":"538.772","ELEMENT_SET_NO":"999","EPOCH":"2022-09-05T22:00:00.999936","MEAN_MOTION_DOT":"0.00001036","MEAN_MOTION_DDOT":"0.0000000000000","APOAPSIS":"540.825","ECCENTRICITY":"0.00014840","MEAN_MOTION":"15.08822664","CLASSIFICATION_TYPE":"U","RCS_SIZE":"LARGE","MEAN_ELEMENT_THEORY":"SGP4","COUNTRY_CODE":"US","OBJECT_TYPE":"PAYLOAD","INCLINATION":"53.2194","TLE_LINE2":"2 52296  53.2194  88.7260 0001484  67.5129 291.5052 15.08822664  1308","BSTAR":"0.00008320500000"},{"COUNTRY_CODE":"US","RCS_SIZE":"LARGE","CLASSIFICATION_TYPE":"U","MEAN_ELEMENT_THEORY":"SGP4","MEAN_MOTION":"15.08831414","APOAPSIS":"541.033","ECCENTRICITY":"0.00018230","MEAN_MOTION_DOT":"-0.00020806","MEAN_MOTION_DDOT":"0.0000000000000","BSTAR":"-0.00129320000000","TLE_LINE2":"2 52297  53.2158  88.7298 0001823  60.9580 198.0668 15.08831414  1302","OBJECT_TYPE":"PAYLOAD","INCLINATION":"53.2158","ARG_OF_PERICENTER":"60.9580","ELEMENT_SET_NO":"999","EPOCH":"2022-09-05T22:00:00.999936","FILE":"3559723","PERIAPSIS":"538.510","SITE":"AFETR","OBJECT_NAME":"STARLINK-3758","SEMIMAJOR_AXIS":"6917.907","OBJECT_ID":"2022-041AN","REF_FRAME":"TEME","EPHEMERIS_TYPE":"0","TLE_LINE1":"1 52297U 22041AN  22248.91667824 -.00020806  00000-0 -12932-2 0  9992","RA_OF_ASC_NODE":"88.7298","DECAY_DATE":null,"CENTER_NAME":"EARTH","GP_ID":"211835414","TIME_SYSTEM":"UTC","LAUNCH_DATE":"2022-04-21","REV_AT_EPOCH":"130","MEAN_ANOMALY":"198.0668","PERIOD":"95.438","NORAD_CAT_ID":"52297"},{"REV_AT_EPOCH":"130","MEAN_ANOMALY":"319.8749","PERIOD":"95.439","NORAD_CAT_ID":"52298","OBJECT_NAME":"STARLINK-3760","SEMIMAJOR_AXIS":"6917.941","OBJECT_ID":"2022-041AP","REF_FRAME":"TEME","EPHEMERIS_TYPE":"0","TLE_LINE1":"1 52298U 22041AP  22248.91667824 -.00004590  00000-0 -27064-3 0  9998","RA_OF_ASC_NODE":"88.7246","DECAY_DATE":null,"CENTER_NAME":"EARTH","GP_ID":"211835662","TIME_SYSTEM":"UTC","LAUNCH_DATE":"2022-04-21","ARG_OF_PERICENTER":"59.1553","ELEMENT_SET_NO":"999","EPOCH":"2022-09-05T22:00:00.999936","PERIAPSIS":"538.680","FILE":"3559723","SITE":"AFETR","COUNTRY_CODE":"US","RCS_SIZE":"LARGE","CLASSIFICATION_TYPE":"U","MEAN_ELEMENT_THEORY":"SGP4","ECCENTRICITY":"0.00016280","APOAPSIS":"540.933","MEAN_MOTION":"15.08820062","MEAN_MOTION_DOT":"-0.00004590","MEAN_MOTION_DDOT":"0.0000000000000","BSTAR":"-0.00027064000000","TLE_LINE2":"2 52298  53.2185  88.7246 0001628  59.1553 319.8749 15.08820062  1309","OBJECT_TYPE":"PAYLOAD","INCLINATION":"53.2185"},{"SEMIMAJOR_AXIS":"6917.911","OBJECT_ID":"2022-041AQ","REF_FRAME":"TEME","EPHEMERIS_TYPE":"0","OBJECT_NAME":"STARLINK-3759","CENTER_NAME":"EARTH","GP_ID":"211834912","LAUNCH_DATE":"2022-04-21","TIME_SYSTEM":"UTC","TLE_LINE1":"1 52299U 22041AQ  22248.91667824 -.00018909  00000-0 -11734-2 0  9994","RA_OF_ASC_NODE":"88.7225","DECAY_DATE":null,"REV_AT_EPOCH":"130","NORAD_CAT_ID":"52299","MEAN_ANOMALY":"269.4822","PERIOD":"95.438","MEAN_MOTION":"15.08829983","APOAPSIS":"540.806","ECCENTRICITY":"0.00014890","MEAN_MOTION_DOT":"-0.00018909","MEAN_MOTION_DDOT":"0.0000000000000","COUNTRY_CODE":"US","RCS_SIZE":"LARGE","CLASSIFICATION_TYPE":"U","MEAN_ELEMENT_THEORY":"SGP4","OBJECT_TYPE":"PAYLOAD","INCLINATION":"53.2179","BSTAR":"-0.00117340000000","TLE_LINE2":"2 52299  53.2179  88.7225 0001489  69.5554 269.4822 15.08829983  1304","ARG_OF_PERICENTER":"69.5554","SITE":"AFETR","ELEMENT_SET_NO":"999","EPOCH":"2022-09-05T22:00:00.999936","PERIAPSIS":"538.746","FILE":"3559723"},{"TLE_LINE1":"1 52300U 22041AR  22248.91667824 -.00005116  00000-0 -30368-3 0  9998","RA_OF_ASC_NODE":"88.7271","DECAY_DATE":null,"CENTER_NAME":"EARTH","GP_ID":"211835164","TIME_SYSTEM":"UTC","LAUNCH_DATE":"2022-04-21","OBJECT_NAME":"STARLINK-3769","SEMIMAJOR_AXIS":"6917.916","REF_FRAME":"TEME","OBJECT_ID":"2022-041AR","EPHEMERIS_TYPE":"0","MEAN_ANOMALY":"359.7294","PERIOD":"95.438","NORAD_CAT_ID":"52300","REV_AT_EPOCH":"130","TLE_LINE2":"2 52300  53.2184  88.7271 0001501  59.2639 359.7294 15.08828189  1302","BSTAR":"-0.00030368000000","OBJECT_TYPE":"PAYLOAD","INCLINATION":"53.2184","COUNTRY_CODE":"US","RCS_SIZE":"LARGE","CLASSIFICATION_TYPE":"U","MEAN_ELEMENT_THEORY":"SGP4","APOAPSIS":"540.820","MEAN_MOTION":"15.08828189","ECCENTRICITY":"0.00015010","MEAN_MOTION_DOT":"-0.00005116","MEAN_MOTION_DDOT":"0.0000000000000","EPOCH":"2022-09-05T22:00:00.999936","ELEMENT_SET_NO":"999","PERIAPSIS":"538.743","FILE":"3559723","SITE":"AFETR","ARG_OF_PERICENTER":"59.2639"}];
